[
    {
        "Altitude(m)": 605459.0295796284,
        "Argument of Periapsis(deg)": 0.0,
        "Eccentricity": 0.0,
        "Inclination(deg)": 60.0,
        "Latitude(deg)": 27.98821653996269,
        "Longitude(deg)": -2.201472800908261,
        "Mean Anomaly(deg)": 32.7273,
        "RAAN(deg)": 80.0,
        "Satellite Name": "Test1 354",
        "Satellite Number": 354,
        "Semi-Major Axis(m)": 6980739.136638005,
        "Time(s)": 0
    },
    {
        "Altitude(m)": 605535.8208205212,
        "Argument of Periapsis(deg)": 0.00010418945913296404,
        "Eccentricity": 0.0,
        "Inclination(deg)": 60.0,
        "Latitude(deg)": 28.501346730086485,
        "Longitude(deg)": -1.8445289640187978,
        "Mean Anomaly(deg)": 33.347406145461825,
        "RAAN(deg)": 79.99957995086025,
        "Satellite Name": "Test1 354",
        "Satellite Number": 354,
        "Semi-Major Axis(m)": 6980739.136638005,
        "Time(s)": 10
    }
]